STARLINK-30138          
1 57605U 23119D   26170.42278982  .00000023  00000+0  10380-4 0  9997
2 57605  43.0046 227.1780 0002737 271.8782  88.1757 15.27576051158642
STARLINK-30255          
1 57606U 23119E   26170.46761354  .00000225  00000+0  17711-4 0  9991
2 57606  43.0011 226.6542 0001031 276.9829  83.0906 15.27577282158657
STARLINK-30252          
1 57607U 23119F   26170.17834930  .00001069  00000+0  48378-4 0  9991
2 57607  43.0005 213.4872 0001148 267.7323  92.3397 15.27580260158788
STARLINK-30258          
1 57608U 23119G   26170.44463197  .00001024  00000+0  46727-4 0  9992
2 57608  43.0014 227.3295 0001420 277.3820  82.6870 15.27580121158643
STARLINK-30174          
1 57609U 23119H   26170.45604827 -.00000146  00000+0  42294-5 0  9992
2 57609  43.0004 226.5623 0001366 273.6459  86.4237 15.27573583158659
STARLINK-30248          
1 57610U 23119J   26170.44961643  .00000409  00000+0  24393-4 0  9995
2 57610  42.9983 226.5130 0001446 263.3847  96.6840 15.27587020158658
STARLINK-30052          
1 57611U 23119K   26170.45990425  .00000709  00000+0  35283-4 0  9990
2 57611  43.0008 226.5924 0001402 279.9031  80.1663 15.27578474158632
STARLINK-30245          
1 57612U 23119L   26170.45090562  .00000711  00000+0  35351-4 0  9993
2 57612  42.9999 226.5213 0001394 277.3566  82.7127 15.27577353158656
STARLINK-30041          
1 57613U 23119M   26170.46118532  .00001063  00000+0  48152-4 0  9997
2 57613  43.0014 226.5989 0000697 249.3227 110.7550 15.27570467158656
STARLINK-30244          
1 57614U 23119N   26170.14199733 -.00002857  00000+0 -94392-4 0  9996
2 57614  43.0071 228.5040 0002267 271.4890  88.5702 15.27549809158609
STARLINK-30246          
1 57615U 23119P   26169.88427447  .00000886  00000+0  41721-4 0  9998
2 57615  43.0026 229.9939 0001122 267.7854  92.2869 15.27576164158564
STARLINK-30075          
1 57616U 23119Q   26170.44834288  .00000784  00000+0  38038-4 0  9992
2 57616  43.0013 226.5135 0001519 277.5980  82.4700 15.27563317158652
STARLINK-30148          
1 57617U 23119R   26170.45476511 -.00000047  00000+0  78060-5 0  9998
2 57617  43.0012 226.5615 0001196 271.3302  88.7412 15.27574440158654
STARLINK-30249          
1 57618U 23119S   26170.45861929  .00000317  00000+0  21050-4 0  9995
2 57618  43.0004 226.5893 0001111 271.9589  88.1135 15.27577508158658
STARLINK-30141          
1 57620U 23119U   26170.20863844  .00000775  00000+0  37678-4 0  9990
2 57620  43.0007 228.1496 0000994 274.0731  86.0007 15.27577813158612
STARLINK-30150          
1 57621U 23119V   26170.53171407  .00000312  00000+0  20853-4 0  9998
2 57621  43.0022 226.2783 0001192 276.5798  83.4918 15.27575831158664
STARLINK-30056          
1 57622U 23119W   26170.14969293 -.00001052  00000+0 -28721-4 0  9990
2 57622  43.0052 228.5394 0001924 272.3406  87.7225 15.27562235158600
STARLINK-30100          
1 57623U 23119X   26170.21891792  .00000624  00000+0  32191-4 0  9995
2 57623  43.0035 228.2229 0001315 264.8964  95.1738 15.27579274158619
STARLINK-30309          
1 57632U 23122A   26170.48682222  .00000253  00000+0  18712-4 0  9995
2 57632  42.9975 237.7680 0001280 270.4680  89.6025 15.27576722157773
STARLINK-30306          
1 57633U 23122B   26170.49068284  .00001160  00000+0  51656-4 0  9995
2 57633  43.0003 237.7964 0001110 267.9983  92.0742 15.27581934157777
STARLINK-30323          
1 57634U 23122C   26170.46503270  .00000775  00000+0  37703-4 0  9990
2 57634  43.0024 226.5758 0001261 276.0616  84.0092 15.27573791157905
STARLINK-30329          
1 57635U 23122D   26170.49709841  .00001137  00000+0  50823-4 0  9997
2 57635  43.0022 237.8456 0001372 272.9159  87.1536 15.27578136157774
STARLINK-30330          
1 57636U 23122E   26170.56634119  .00000513  00000+0  28177-4 0  9995
2 57636  43.0021 237.5051 0001164 277.1982  82.8737 15.27579094157782
STARLINK-30311          
1 57637U 23122F   26170.44956845 -.00000977  00000+0 -25940-4 0  9997
2 57637  43.0076 237.4991 0002027 279.1987  80.8636 15.27588645157778
STARLINK-30328          
1 57638U 23122G   26170.45732152 -.00005330  00000+0 -18425-3 0  9999
2 57638  43.0000 226.4598 0001247 274.6987  85.3722 15.27591562157914
STARLINK-30326          
1 57639U 23122H   26170.47525062  .00001621  00000+0  68397-4 0  9993
2 57639  43.0015 237.6747 0000539 271.3050  88.7740 15.27586630157770
STARLINK-30324          
1 57640U 23122J   26170.49324318  .00000522  00000+0  28483-4 0  9999
2 57640  43.0006 237.8141 0001246 271.2475  88.8234 15.27579725157763
STARLINK-30312          
1 57641U 23122K   26170.18158703  .00000059  00000+0  11667-4 0  9990
2 57641  43.0057 238.9199 0001953 270.2684  89.7944 15.27576032157734
STARLINK-30263          
1 57642U 23122L   26170.45341077  .00001060  00000+0  48040-4 0  9997
2 57642  43.0038 237.5217 0001496 266.1626  93.9055 15.27577064157772
STARLINK-30280          
1 57643U 23122M   26170.46112284  .00000580  00000+0  30624-4 0  9990
2 57643  43.0067 237.5817 0001886 277.7531  82.3106 15.27580778157772
