OBJECT_NAME,OBJECT_ID,EPOCH,MEAN_MOTION,ECCENTRICITY,INCLINATION,RA_OF_ASC_NODE,ARG_OF_PERICENTER,MEAN_ANOMALY,EPHEMERIS_TYPE,CLASSIFICATION_TYPE,NORAD_CAT_ID,ELEMENT_SET_NO,REV_AT_EPOCH,BSTAR,MEAN_MOTION_DOT,MEAN_MOTION_DDOT
STARLINK-30138,2023-119D,2026-06-19T10:08:49.040448,15.27576051,.00027377,43.0046,227.1780,271.8782,88.1757,0,U,57605,999,15864,.10380099E-4,.23E-6,0
STARLINK-30255,2023-119E,2026-06-19T11:13:21.809856,15.27577282,.00010317,43.0011,226.6542,276.9829,83.0906,0,U,57606,999,15865,.1771099E-4,.225E-5,0
STARLINK-30252,2023-119F,2026-06-19T04:16:49.379520,15.27580260,.00011483,43.0005,213.4872,267.7323,92.3397,0,U,57607,999,15878,.4837787E-4,.1069E-4,0
STARLINK-30258,2023-119G,2026-06-19T10:40:16.202208,15.27580121,.00014206,43.0014,227.3295,277.3820,82.6870,0,U,57608,999,15864,.46726516E-4,.1024E-4,0
STARLINK-30174,2023-119H,2026-06-19T10:56:42.570528,15.27573583,.00013667,43.0004,226.5623,273.6459,86.4237,0,U,57609,999,15865,.4229354E-5,-.146E-5,0
STARLINK-30248,2023-119J,2026-06-19T10:47:26.859552,15.27587020,.00014463,42.9983,226.5130,263.3847,96.6840,0,U,57610,999,15865,.24393129E-4,.409E-5,0
STARLINK-30052,2023-119K,2026-06-19T11:02:15.727200,15.27578474,.00014024,43.0008,226.5924,279.9031,80.1663,0,U,57611,999,15863,.35282936E-4,.709E-5,0
STARLINK-30245,2023-119L,2026-06-19T10:49:18.245568,15.27577353,.00013944,42.9999,226.5213,277.3566,82.7127,0,U,57612,999,15865,.3535069E-4,.711E-5,0
STARLINK-30041,2023-119M,2026-06-19T11:04:06.411648,15.27570467,.00006979,43.0014,226.5989,249.3227,110.7550,0,U,57613,999,15865,.48152036E-4,.1063E-4,0
STARLINK-30244,2023-119N,2026-06-19T03:24:28.569312,15.27549809,.00022672,43.0071,228.5040,271.4890,88.5702,0,U,57614,999,15860,-.94392285E-4,-.2857E-4,0
STARLINK-30246,2023-119P,2026-06-18T21:13:21.314208,15.27576164,.0001122,43.0026,229.9939,267.7854,92.2869,0,U,57615,999,15856,.41721E-4,.886E-5,0
STARLINK-30075,2023-119Q,2026-06-19T10:45:36.824832,15.27563317,.00015193,43.0013,226.5135,277.5980,82.4700,0,U,57616,999,15865,.38037874E-4,.784E-5,0
STARLINK-30148,2023-119R,2026-06-19T10:54:51.705504,15.27574440,.00011962,43.0012,226.5615,271.3302,88.7412,0,U,57617,999,15865,.7805987E-5,-.47E-6,0
STARLINK-30249,2023-119S,2026-06-19T11:00:24.706656,15.27577508,.00011111,43.0004,226.5893,271.9589,88.1135,0,U,57618,999,15865,.21049924E-4,.317E-5,0
STARLINK-30141,2023-119U,2026-06-19T05:00:26.361216,15.27577813,.00009944,43.0007,228.1496,274.0731,86.0007,0,U,57620,999,15861,.37678365E-4,.775E-5,0
STARLINK-30150,2023-119V,2026-06-19T12:45:40.095648,15.27575831,.00011922,43.0022,226.2783,276.5798,83.4918,0,U,57621,999,15866,.20852885E-4,.312E-5,0
STARLINK-30056,2023-119W,2026-06-19T03:35:33.469152,15.27562235,.00019243,43.0052,228.5394,272.3406,87.7225,0,U,57622,999,15860,-.28721067E-4,-.1052E-4,0
STARLINK-30100,2023-119X,2026-06-19T05:15:14.508288,15.27579274,.00013157,43.0035,228.2229,264.8964,95.1738,0,U,57623,999,15861,.32190692E-4,.624E-5,0
STARLINK-30309,2023-122A,2026-06-19T11:41:01.439808,15.27576722,.00012809,42.9975,237.7680,270.4680,89.6025,0,U,57632,999,15777,.18711652E-4,.253E-5,0
STARLINK-30306,2023-122B,2026-06-19T11:46:34.997376,15.27581934,.00011106,43.0003,237.7964,267.9983,92.0742,0,U,57633,999,15777,.51655963E-4,.116E-4,0
STARLINK-30323,2023-122C,2026-06-19T11:09:38.825280,15.27573791,.00012613,43.0024,226.5758,276.0616,84.0092,0,U,57634,999,15790,.37702954E-4,.775E-5,0
STARLINK-30329,2023-122D,2026-06-19T11:55:49.302624,15.27578136,.00013723,43.0022,237.8456,272.9159,87.1536,0,U,57635,999,15777,.50822829E-4,.1137E-4,0
STARLINK-30330,2023-122E,2026-06-19T13:35:31.878816,15.27579094,.00011649,43.0021,237.5051,277.1982,82.8737,0,U,57636,999,15778,.28176642E-4,.513E-5,0
STARLINK-30311,2023-122F,2026-06-19T10:47:22.714080,15.27588645,.00020279,43.0076,237.4991,279.1987,80.8636,0,U,57637,999,15777,-.25940374E-4,-.977E-5,0
STARLINK-30328,2023-122G,2026-06-19T10:58:32.579328,15.27591562,.00012476,43.0000,226.4598,274.6987,85.3722,0,U,57638,999,15791,-.18425311E-3,-.533E-4,0
STARLINK-30326,2023-122H,2026-06-19T11:24:21.653568,15.27586630,.00005397,43.0015,237.6747,271.3050,88.7740,0,U,57639,999,15777,.68396615E-4,.1621E-4,0
STARLINK-30324,2023-122J,2026-06-19T11:50:16.210752,15.27579725,.0001246,43.0006,237.8141,271.2475,88.8234,0,U,57640,999,15776,.28482937E-4,.522E-5,0
STARLINK-30312,2023-122K,2026-06-19T04:21:29.119392,15.27576032,.00019535,43.0057,238.9199,270.2684,89.7944,0,U,57641,999,15773,.11666732E-4,.59E-6,0
STARLINK-30263,2023-122L,2026-06-19T10:52:54.690528,15.27577064,.00014969,43.0038,237.5217,266.1626,93.9055,0,U,57642,999,15777,.48040158E-4,.106E-4,0
STARLINK-30280,2023-122M,2026-06-19T11:04:01.013376,15.27580778,.0001886,43.0067,237.5817,277.7531,82.3106,0,U,57643,999,15777,.30623697E-4,.58E-5,0
